OBJECT_NAME,OBJECT_ID,EPOCH,MEAN_MOTION,ECCENTRICITY,INCLINATION,RA_OF_ASC_NODE,ARG_OF_PERICENTER,MEAN_ANOMALY,EPHEMERIS_TYPE,CLASSIFICATION_TYPE,NORAD_CAT_ID,ELEMENT_SET_NO,REV_AT_EPOCH,BSTAR,MEAN_MOTION_DOT,MEAN_MOTION_DDOT
STARLINK-4689,2022-104C,2025-05-24T07:09:50.444064,15.08836290,.0001354,53.2170,103.4567,85.3854,274.7293,0,U,53590,999,15123,.29111E-4,.175E-5,0
STARLINK-4674,2022-104D,2025-05-25T03:44:32.943840,15.08837478,.0001484,53.2177,99.5684,89.4054,270.7108,0,U,53591,999,15136,.12399E-4,-.91E-6,0
STARLINK-4672,2022-104E,2025-05-24T03:49:49.959264,15.08838828,.0001365,53.2173,104.0107,87.8319,272.2830,0,U,53592,999,15223,.58311E-4,.64E-5,0
STARLINK-4671,2022-104F,2025-05-24T22:00:01.999584,15.72397034,.0003901,53.1788,47.4648,125.8596,253.1530,0,U,53593,999,602,.11116E-2,.152966E-2,0
STARLINK-4681,2022-104G,2025-05-24T06:38:01.404960,15.08835568,.0001376,53.2168,103.3187,90.2117,269.9033,0,U,53594,999,15239,.67015E-4,.779E-5,0
STARLINK-4684,2022-104H,2025-05-24T06:43:18.302880,15.08832483,.0001348,53.2173,103.3399,87.7657,272.3490,0,U,53595,999,15225,.55534E-4,.596E-5,0
STARLINK-4668,2022-104J,2025-05-25T06:00:02.000160,15.87892225,.0003605,53.1984,21.5067,201.1156,239.6329,0,U,53596,999,15246,.15609E-2,.452915E-2,0
STARLINK-4676,2022-104L,2025-05-24T04:30:47.395584,15.08839755,.0001384,53.2172,103.4804,76.5463,283.5683,0,U,53598,999,15191,-.53712E-4,-.1143E-4,0
STARLINK-4677,2022-104N,2025-05-24T07:37:44.776704,15.08837737,.0001428,53.2171,103.5609,87.9012,272.2143,0,U,53600,999,15192,-.19586E-4,-.6E-5,0
STARLINK-4675,2022-104P,2025-05-25T03:02:06.035136,15.08837259,.0001444,53.2168,99.3843,89.3224,270.7934,0,U,53601,999,15136,.51436E-4,.531E-5,0
STARLINK-4648,2022-104Q,2025-05-24T23:59:57.562656,15.08845269,.0001579,53.2183,95.0359,105.7924,254.3242,0,U,53602,999,15141,.42265E-5,-.221E-5,0
STARLINK-4692,2022-104R,2025-05-24T21:21:01.300896,15.08835454,.0001138,53.2175,95.7669,86.4845,273.6277,0,U,53603,999,15208,.10358E-4,-.123E-5,0
STARLINK-4690,2022-104S,2025-05-24T14:17:01.595040,15.08838898,.0001395,53.2170,96.7729,87.6198,272.4954,0,U,53604,999,15204,.83284E-5,-.155E-5,0
STARLINK-4693,2022-104T,2025-05-24T14:08:25.505376,15.08830654,.0001472,53.2176,101.7180,90.2307,269.8854,0,U,53605,999,15197,.14641E-4,-.55E-6,0
STARLINK-4590,2022-104U,2025-05-24T19:38:20.279328,15.08838575,.0001593,53.2188,91.0270,107.1573,252.9594,0,U,53606,999,15202,-.11701E-5,-.307E-5,0
STARLINK-4591,2022-104V,2025-05-24T03:35:51.973440,15.08845746,.00014,53.2171,98.9667,91.3518,268.7634,0,U,53607,999,15197,.91336E-4,.1166E-4,0
STARLINK-4647,2022-104W,2025-05-25T00:35:06.689472,15.08833742,.0001428,53.2176,90.1800,83.6240,276.4914,0,U,53608,999,15148,.32401E-4,.228E-5,0
STARLINK-4660,2022-104X,2025-05-24T20:17:20.832000,15.08837249,.0001529,53.2171,95.4911,80.5991,279.5174,0,U,53609,999,15208,.60294E-4,.672E-5,0
STARLINK-4610,2022-104Y,2025-05-24T13:18:10.605888,15.08833894,.0001391,53.2176,92.2208,95.4299,264.6852,0,U,53610,999,15198,.2178E-4,.59E-6,0
STARLINK-4650,2022-104Z,2025-05-24T22:21:56.468448,15.62706432,.0002546,53.1845,30.7544,111.1831,248.9457,0,U,53611,999,15230,.10999E-2,.101245E-2,0
STARLINK-4658,2022-104AA,2025-05-24T03:39:10.101600,15.08839531,.0001452,53.2170,93.9786,89.1068,271.0091,0,U,53612,999,15192,.18335E-4,.4E-7,0
STARLINK-4655,2022-104AB,2025-05-24T13:22:06.057120,15.08836934,.0001484,53.2172,92.2403,89.3464,270.7699,0,U,53613,999,15198,.26235E-4,.13E-5,0
STARLINK-4605,2022-104AE,2025-05-25T05:01:20.134848,15.08854357,.000138,53.2178,79.0314,88.8102,271.3049,0,U,53616,999,15165,.13007E-3,.1784E-4,0
STARLINK-4609,2022-104AH,2025-05-24T19:22:25.015872,15.08836496,.0001734,53.2174,90.9584,76.4392,283.6794,0,U,53619,999,15202,-.14924E-4,-.526E-5,0
STARLINK-4615,2022-104AJ,2025-05-24T23:47:21.465888,15.08838354,.0001758,53.2169,89.9739,95.0670,265.0522,0,U,53620,999,15148,-.55942E-4,-.1178E-4,0
STARLINK-4608,2022-104AK,2025-05-25T00:03:16.478784,15.08835118,.0001436,53.2171,90.0435,90.0192,270.0964,0,U,53621,999,15148,-.39056E-4,-.909E-5,0
STARLINK-4568,2022-104AL,2025-05-24T20:04:44.583168,15.08837619,.0001408,53.2176,90.4336,87.6074,272.5079,0,U,53622,999,15214,.49687E-4,.503E-5,0
STARLINK-4573,2022-104AM,2025-05-24T20:41:53.010240,15.08837727,.0001415,53.2178,90.5904,89.9290,270.1864,0,U,53623,999,15214,-.9627E-5,-.441E-5,0
STARLINK-4596,2022-104AN,2025-05-25T02:47:31.043328,15.08838508,.0002154,53.2174,89.3338,90.9320,269.1919,0,U,53624,999,15150,-.1129E-3,-.2085E-4,0
STARLINK-4554,2022-104AQ,2025-05-24T21:45:26.029728,15.08839811,.0001308,53.2178,90.1550,89.9503,270.1639,0,U,53626,999,15216,.53663E-4,.566E-5,0
