STARLINK-4689           
1 53590U 22104C   25144.29850051  .00000175  00000+0  29111-4 0  9997
2 53590  53.2170 103.4567 0001354  85.3854 274.7293 15.08836290151232
STARLINK-4674           
1 53591U 22104D   25145.15593685 -.00000091  00000+0  12399-4 0  9999
2 53591  53.2177  99.5684 0001484  89.4054 270.7108 15.08837478151360
STARLINK-4672           
1 53592U 22104E   25144.15960601  .00000640  00000+0  58311-4 0  9998
2 53592  53.2173 104.0107 0001365  87.8319 272.2830 15.08838828152239
STARLINK-4671           
1 53593U 22104F   25144.91668981  .00152966  00000+0  11116-2 0  9998
2 53593  53.1788  47.4648 0003901 125.8596 253.1530 15.72397034  6029
STARLINK-4681           
1 53594U 22104G   25144.27640515  .00000779  00000+0  67015-4 0  9996
2 53594  53.2168 103.3187 0001376  90.2117 269.9033 15.08835568152394
STARLINK-4684           
1 53595U 22104H   25144.28007295  .00000596  00000+0  55534-4 0  9990
2 53595  53.2173 103.3399 0001348  87.7657 272.3490 15.08832483152258
STARLINK-4668           
1 53596U 22104J   25145.25002315  .00452915  00000+0  15609-2 0  9990
2 53596  53.1984  21.5067 0003605 201.1156 239.6329 15.87892225152462
STARLINK-4676           
1 53598U 22104L   25144.18804856 -.00001143  00000+0 -53712-4 0  9997
2 53598  53.2172 103.4804 0001384  76.5463 283.5683 15.08839755151912
STARLINK-4677           
1 53600U 22104N   25144.31787936 -.00000600  00000+0 -19586-4 0  9993
2 53600  53.2171 103.5609 0001428  87.9012 272.2143 15.08837737151929
STARLINK-4675           
1 53601U 22104P   25145.12645874  .00000531  00000+0  51436-4 0  9999
2 53601  53.2168  99.3843 0001444  89.3224 270.7934 15.08837259151365
STARLINK-4648           
1 53602U 22104Q   25144.99997179 -.00000221  00000+0  42265-5 0  9990
2 53602  53.2183  95.0359 0001579 105.7924 254.3242 15.08845269151413
STARLINK-4692           
1 53603U 22104R   25144.88959839 -.00000123  00000+0  10358-4 0  9998
2 53603  53.2175  95.7669 0001138  86.4845 273.6277 15.08835454152085
STARLINK-4690           
1 53604U 22104S   25144.59515735 -.00000155  00000+0  83284-5 0  9994
2 53604  53.2170  96.7729 0001395  87.6198 272.4954 15.08838898152048
STARLINK-4693           
1 53605U 22104T   25144.58918409 -.00000055  00000+0  14641-4 0  9998
2 53605  53.2176 101.7180 0001472  90.2307 269.8854 15.08830654151973
STARLINK-4590           
1 53606U 22104U   25144.81829027 -.00000307  00000+0 -11701-5 0  9998
2 53606  53.2188  91.0270 0001593 107.1573 252.9594 15.08838575152026
STARLINK-4591           
1 53607U 22104V   25144.14990710  .00001166  00000+0  91336-4 0  9996
2 53607  53.2171  98.9667 0001400  91.3518 268.7634 15.08845746151976
STARLINK-4647           
1 53608U 22104W   25145.02438298  .00000228  00000+0  32401-4 0  9999
2 53608  53.2176  90.1800 0001428  83.6240 276.4914 15.08833742151487
STARLINK-4660           
1 53609U 22104X   25144.84538000  .00000672  00000+0  60294-4 0  9995
2 53609  53.2171  95.4911 0001529  80.5991 279.5174 15.08837249152080
STARLINK-4610           
1 53610U 22104Y   25144.55428942  .00000059  00000+0  21780-4 0  9994
2 53610  53.2176  92.2208 0001391  95.4299 264.6852 15.08833894151982
STARLINK-4650           
1 53611U 22104Z   25144.93190357  .00101245  00000+0  10999-2 0  9990
2 53611  53.1845  30.7544 0002546 111.1831 248.9457 15.62706432152306
STARLINK-4658           
1 53612U 22104AA  25144.15220025  .00000004  00000+0  18335-4 0  9996
2 53612  53.2170  93.9786 0001452  89.1068 271.0091 15.08839531151924
STARLINK-4655           
1 53613U 22104AB  25144.55701455  .00000130  00000+0  26235-4 0  9990
2 53613  53.2172  92.2403 0001484  89.3464 270.7699 15.08836934151982
STARLINK-4605           
1 53616U 22104AE  25145.20926082  .00001784  00000+0  13007-3 0  9999
2 53616  53.2178  79.0314 0001380  88.8102 271.3049 15.08854357151652
STARLINK-4609           
1 53619U 22104AH  25144.80723398 -.00000526  00000+0 -14924-4 0  9997
2 53619  53.2174  90.9584 0001734  76.4392 283.6794 15.08836496152028
STARLINK-4615           
1 53620U 22104AJ  25144.99122067 -.00001178  00000+0 -55942-4 0  9994
2 53620  53.2169  89.9739 0001758  95.0670 265.0522 15.08838354151483
STARLINK-4608           
1 53621U 22104AK  25145.00227406 -.00000909  00000+0 -39056-4 0  9990
2 53621  53.2171  90.0435 0001436  90.0192 270.0964 15.08835118151481
STARLINK-4568           
1 53622U 22104AL  25144.83662712  .00000503  00000+0  49687-4 0  9993
2 53622  53.2176  90.4336 0001408  87.6074 272.5079 15.08837619152147
STARLINK-4573           
1 53623U 22104AM  25144.86241910 -.00000441  00000+0 -96270-5 0  9994
2 53623  53.2178  90.5904 0001415  89.9290 270.1864 15.08837727152141
STARLINK-4596           
1 53624U 22104AN  25145.11633152 -.00002085  00000+0 -11290-3 0  9990
2 53624  53.2174  89.3338 0002154  90.9320 269.1919 15.08838508151508
STARLINK-4554           
1 53626U 22104AQ  25144.90655127  .00000566  00000+0  53663-4 0  9995
2 53626  53.2178  90.1550 0001308  89.9503 270.1639 15.08839811152163
